[{"OBJECT_NAME":"STARLINK-36375","OBJECT_ID":"2026-036S","EPOCH":"2026-03-09T21:20:33.110304","MEAN_MOTION":15.8223341,"ECCENTRICITY":0.0002326,"INCLINATION":42.9987,"RA_OF_ASC_NODE":248.4138,"ARG_OF_PERICENTER":272.6969,"MEAN_ANOMALY":87.3637,"EPHEMERIS_TYPE":0,"CLASSIFICATION_TYPE":"U","NORAD_CAT_ID":67920,"ELEMENT_SET_NO":999,"REV_AT_EPOCH":370,"BSTAR":0.0029121889,"MEAN_MOTION_DOT":0.00669229,"MEAN_MOTION_DDOT":0},{"OBJECT_NAME":"NOAA 16 DEB","OBJECT_ID":"2000-055AJ","EPOCH":"2026-03-09T22:45:58.695264","MEAN_MOTION":15.81251105,"ECCENTRICITY":0.00074025,"INCLINATION":99.0584,"RA_OF_ASC_NODE":244.5578,"ARG_OF_PERICENTER":65.5662,"MEAN_ANOMALY":294.6372,"EPHEMERIS_TYPE":0,"CLASSIFICATION_TYPE":"U","NORAD_CAT_ID":41075,"ELEMENT_SET_NO":999,"REV_AT_EPOCH":55075,"BSTAR":0.0049218825,"MEAN_MOTION_DOT":0.01069422,"MEAN_MOTION_DDOT":0}]
